{"type":"FeatureCollection","attribution":"\u00a9 OpenStreetMap contributors (ODbL)","features":[{"type":"Feature","geometry":{"type":"MultiLineString","coordinates":[[[-80.1220361,25.9311435],[-80.1222377,25.9308567],[-80.1224909,25.9307409],[-80.1270747,25.9305578],[-80.1313493,25.9301697],[-80.1323899,25.9299575],[-80.1334169,25.9295663],[-80.1383022,25.9270207],[-80.1391628,25.9266698],[-80.139823,25.926515],[-80.1404513,25.9264288],[-80.149691,25.9260465],[-80.1513857,25.9260279],[-80.1548075,25.926217],[-80.1640049,25.9260023],[-80.1760413,25.9254704],[-80.1768069,25.9254988],[-80.1776753,25.9256691],[-80.17862,25.9260608],[-80.1811255,25.9279208],[-80.1818647,25.9283488],[-80.1828339,25.9286914],[-80.18392,25.9288298],[-80.2033345,25.9280337],[-80.2046438,25.9278044],[-80.20608,25.9267563],[-80.2064704,25.926615],[-80.206994,25.9265852],[-80.2075237,25.9267163],[-80.2080169,25.9270465],[-80.2094717,25.9285154],[-80.2103338,25.9297778],[-80.2104776,25.9299201],[-80.2106185,25.9300569],[-80.2107717,25.9302104],[-80.2108461,25.9302923],[-80.2110116,25.9305923],[-80.2110181,25.9309354],[-80.2108506,25.9311462],[-80.210552,25.9312429],[-80.2102121,25.9311238],[-80.2100543,25.9308181],[-80.2101447,25.930449],[-80.2104348,25.9301037],[-80.2110153,25.9296155],[-80.2121835,25.9286941],[-80.2126414,25.9282981],[-80.2129673,25.9280588],[-80.2136291,25.9277621],[-80.214547,25.9276038],[-80.228679,25.9269744],[-80.2497161,25.926272],[-80.2570718,25.9258783],[-80.2624877,25.9257857],[-80.2764286,25.925281],[-80.2824386,25.9254519],[-80.2934681,25.9251643],[-80.29704,25.9248705],[-80.3096727,25.9248571],[-80.3198195,25.9247238],[-80.320798,25.9245849],[-80.3217078,25.9243147],[-80.3229866,25.9236431],[-80.3236561,25.923095],[-80.3242741,25.9224003],[-80.3249436,25.9212114],[-80.3251753,25.9204935],[-80.3253041,25.9194359],[-80.3249593,25.9106696]],[[-80.3249593,25.9106696],[-80.3244567,25.8993881],[-80.3245766,25.8954062],[-80.3241429,25.8907413],[-80.323033,25.8664324],[-80.3228663,25.8584047],[-80.3213022,25.804881],[-80.3212606,25.8009483],[-80.3214684,25.7964542],[-80.3214701,25.7935859],[-80.3210905,25.7829145],[-80.3207624,25.7786207]],[[-80.3249593,25.9106696],[-80.3248791,25.9103484],[-80.3243928,25.8996958],[-80.3243772,25.8980509],[-80.3245008,25.8953584],[-80.3240446,25.8909396],[-80.3229436,25.8664262],[-80.3211502,25.8024805],[-80.3211529,25.8002003],[-80.3213896,25.7961004],[-80.3213678,25.79378],[-80.321001,25.7832325],[-80.3207136,25.7791849],[-80.3207624,25.7786207]],[[-80.3226263,25.8634722],[-80.3229488,25.8719043],[-80.3251246,25.9194622],[-80.3250731,25.9201801],[-80.32491,25.9208363],[-80.3245581,25.9216932],[-80.324129,25.9223416],[-80.3234938,25.9230364],[-80.3228758,25.9235381],[-80.3221634,25.923955],[-80.3211592,25.9243409],[-80.319743,25.924588],[-80.3091276,25.924722],[-80.2969979,25.9247115],[-80.2934683,25.9250254],[-80.2812394,25.9253136],[-80.2764226,25.9251407],[-80.2624929,25.9256401],[-80.2581928,25.9256941],[-80.2478931,25.9261959],[-80.228667,25.9268057],[-80.2142755,25.9274683],[-80.2130118,25.9278217],[-80.2121404,25.9284096],[-80.2116549,25.9286343],[-80.2107755,25.9287893],[-80.2101776,25.9287203],[-80.2096927,25.9285356],[-80.2078928,25.9268234],[-80.2074827,25.9266044],[-80.2069598,25.9264917],[-80.2062053,25.9266197],[-80.2045259,25.9276072],[-80.2034221,25.927885],[-80.1839005,25.9286893],[-80.1827227,25.9285175],[-80.1819738,25.9282366],[-80.1812063,25.9277999],[-80.1786964,25.9259395],[-80.1777372,25.9255431],[-80.1766818,25.92535],[-80.164005,25.9258679],[-80.1556374,25.9260428],[-80.1539791,25.9260303],[-80.1514066,25.9258591],[-80.1496997,25.925872],[-80.1404235,25.9262703],[-80.139483,25.9264073],[-80.1383271,25.9268118],[-80.133234,25.929453],[-80.1320965,25.9298122],[-80.1313763,25.9298436],[-80.1276649,25.9296627],[-80.1220054,25.9298643]],[[-80.3203746,25.7793423],[-80.3204761,25.7795703],[-80.320935,25.7835041],[-80.3213239,25.7949745],[-80.321292,25.7968204],[-80.3210476,25.8006313],[-80.3210355,25.8024775],[-80.3227201,25.8631007],[-80.3226263,25.8634722]],[[-80.3203746,25.7793423],[-80.3208704,25.7839495],[-80.3212079,25.7953404],[-80.3209194,25.8008498],[-80.3209996,25.8059147],[-80.3217056,25.8282302],[-80.3220489,25.8436419],[-80.3226263,25.8634722]],[[-80.3207624,25.7786207],[-80.3206195,25.7745474],[-80.3206457,25.7701009],[-80.3204535,25.7650525],[-80.3205543,25.7641194],[-80.3211877,25.7606325],[-80.3212219,25.7597847],[-80.3209954,25.7581856],[-80.3202644,25.7548427],[-80.3201336,25.7537049],[-80.3200553,25.7460238],[-80.3197026,25.7385855],[-80.3195369,25.7375077],[-80.318879,25.7347643],[-80.3185912,25.732483],[-80.3185009,25.7278733],[-80.3188327,25.724493],[-80.3188634,25.7228436],[-80.3187066,25.7201163],[-80.3180027,25.7117259],[-80.3177068,25.7061249],[-80.3170108,25.6876422],[-80.3170757,25.6858486],[-80.3178585,25.6792123],[-80.3181542,25.6782709],[-80.3190034,25.6765204]],[[-80.3181164,25.6777034],[-80.31708,25.6784995],[-80.3155028,25.6791389],[-80.3151148,25.6794361],[-80.3148654,25.6797789],[-80.3147362,25.6801218],[-80.314706,25.6813363],[-80.3147865,25.6821283],[-80.314986,25.6828603],[-80.3153856,25.6837178],[-80.3163753,25.6854238],[-80.3166992,25.6864104],[-80.3168553,25.6874089],[-80.3173691,25.7027916],[-80.3177247,25.7104285],[-80.3179303,25.7136448],[-80.318566,25.7207018],[-80.3185092,25.7219396],[-80.318093,25.7241853],[-80.318021,25.7250909],[-80.3181426,25.7288707],[-80.3182229,25.7292637],[-80.3182898,25.7327127],[-80.3185297,25.734548],[-80.3191768,25.7372752],[-80.3193984,25.7387251],[-80.3197564,25.7460854],[-80.3198487,25.7539205],[-80.3199926,25.7550138],[-80.3208511,25.7589646],[-80.3209471,25.7598821],[-80.3208686,25.7609575],[-80.3203241,25.7639021],[-80.3202027,25.7650912],[-80.320383,25.7701083],[-80.3202257,25.7760422],[-80.3203746,25.7793423]]]},"properties":{"label":"SR 826","aliases":["826","fl 826","palmetto","palmetto expressway","sr 826","sr-826"]}},{"type":"Feature","geometry":{"type":"MultiLineString","coordinates":[[[-80.2016723,25.7892569],[-80.2036066,25.7891146],[-80.2064535,25.7890384],[-80.2078476,25.7887723],[-80.2088668,25.7883534],[-80.2140945,25.785836],[-80.2213237,25.7829474],[-80.222567,25.7827259],[-80.2249387,25.7827331],[-80.227989,25.7825876],[-80.2306709,25.782577],[-80.2319713,25.7828962],[-80.2345195,25.7840512],[-80.2354237,25.7843802],[-80.237651,25.7848808],[-80.2389825,25.7849893],[-80.2401274,25.7849756],[-80.2453034,25.7844412],[-80.2463689,25.7844298],[-80.2476918,25.7846278],[-80.2508589,25.7855673],[-80.2517957,25.7857653],[-80.2564199,25.7861062],[-80.2626311,25.7858734],[-80.2635907,25.7857581],[-80.2648519,25.7853673],[-80.2678406,25.7838688],[-80.26862,25.783563],[-80.2701044,25.783268],[-80.271422,25.7832203],[-80.2727772,25.7833652],[-80.2737945,25.7836247],[-80.2766429,25.7847548],[-80.278149,25.7851959],[-80.2795906,25.7854397],[-80.2813147,25.7855111],[-80.283016,25.7853552],[-80.2878217,25.7844026],[-80.2890059,25.784277],[-80.2902384,25.784277],[-80.293107,25.7846277],[-80.294821,25.7847026],[-80.3017511,25.7844539],[-80.3030567,25.7843035],[-80.3049429,25.7837541],[-80.3121809,25.7803456],[-80.3131921,25.7800806],[-80.3143997,25.7799501],[-80.3158978,25.780057],[-80.3187228,25.7806832],[-80.3212291,25.7811009],[-80.323768,25.7814035],[-80.3257739,25.7815284],[-80.3427144,25.781551],[-80.3466529,25.7816246],[-80.3621598,25.7815646],[-80.364712,25.781416],[-80.3676695,25.7810086],[-80.370955,25.7802834],[-80.3753509,25.7790562],[-80.3762637,25.7789034],[-80.3772106,25.778883],[-80.3785108,25.7790751],[-80.3796382,25.7794715],[-80.3826613,25.7813626],[-80.3838781,25.7818707],[-80.385056,25.7820584],[-80.3884852,25.7820506],[-80.389803,25.7821624],[-80.3910452,25.782434],[-80.3935392,25.7832233],[-80.3950477,25.7835228],[-80.3967131,25.7836443],[-80.4131078,25.7837172],[-80.4145392,25.7834661],[-80.4158901,25.7828815],[-80.416508,25.7824657],[-80.4186224,25.7807502],[-80.419046,25.7803492],[-80.4193217,25.7799254],[-80.4195522,25.7790506],[-80.4194073,25.778207],[-80.4191232,25.7776952],[-80.4176943,25.7758785],[-80.4175052,25.7754827],[-80.4173666,25.7748696]],[[-80.4118262,25.7835346],[-80.396766,25.7834899],[-80.3951078,25.783377],[-80.3937888,25.7831228],[-80.3911844,25.7823026],[-80.3898526,25.7820054],[-80.388671,25.7819008],[-80.3850209,25.7818757],[-80.3839032,25.7816948],[-80.3828253,25.7812877],[-80.3801815,25.7795822],[-80.3793865,25.7791714],[-80.3781457,25.7787564],[-80.3767618,25.7785664],[-80.3758495,25.7785868],[-80.3749554,25.778717],[-80.3687579,25.7802038],[-80.3655886,25.7807435],[-80.3623083,25.7810314],[-80.3562386,25.7811908],[-80.3261096,25.7812538],[-80.3241446,25.7811369],[-80.3222348,25.7809038],[-80.3169012,25.7797143],[-80.3159638,25.779577],[-80.3150252,25.7795526],[-80.3134009,25.7797207],[-80.312026,25.7801089],[-80.3049014,25.7834612],[-80.3038463,25.7838361],[-80.3028549,25.784065],[-80.3014656,25.7842059],[-80.2948773,25.7844666],[-80.2931124,25.7843917],[-80.290406,25.7840693],[-80.2891004,25.7840489],[-80.2876369,25.7842118],[-80.2830977,25.785118],[-80.2812832,25.7852919],[-80.2798529,25.7852436],[-80.2783958,25.7850251],[-80.276875,25.784603],[-80.2745311,25.7836394],[-80.27359,25.7833344],[-80.2721462,25.7830676],[-80.2708796,25.7830145],[-80.2694603,25.7831512],[-80.2683429,25.7834129],[-80.2635215,25.7852931],[-80.2623528,25.7855968],[-80.2614456,25.7857001],[-80.2574901,25.7858802],[-80.2556348,25.7858796],[-80.2515862,25.7855231],[-80.2478122,25.7844442],[-80.2465474,25.7842367],[-80.2451988,25.784245],[-80.2399717,25.7847782],[-80.2377382,25.7846869],[-80.2366291,25.7844926],[-80.2354778,25.7841767],[-80.2344351,25.7837825],[-80.2319869,25.782644],[-80.2305338,25.7823074],[-80.2276126,25.7822196],[-80.2229732,25.7824038],[-80.2221731,25.7825018],[-80.2212523,25.7827848],[-80.2135538,25.7858525],[-80.2117179,25.7866623],[-80.2090723,25.7880086],[-80.2077982,25.7884908],[-80.2068223,25.7886417],[-80.2039055,25.788486],[-80.2016389,25.7884906]]]},"properties":{"label":"SR 836","aliases":["836","dolphin","dolphin expressway","sr 836","sr-836"]}},{"type":"Feature","geometry":{"type":"MultiLineString","coordinates":[[[-80.4728663,25.4549944],[-80.4471578,25.4726723],[-80.4295655,25.4835289],[-80.4275148,25.4850539],[-80.4203677,25.4911642],[-80.4195806,25.4919769],[-80.4187538,25.4931097],[-80.418093,25.4943759],[-80.4177796,25.4952785],[-80.4175047,25.4965478],[-80.4169506,25.5038693],[-80.4167338,25.5048573],[-80.4163172,25.5060629],[-80.4156008,25.5073904],[-80.4151287,25.5080334],[-80.4138413,25.509327],[-80.4101645,25.5122452],[-80.4095036,25.5128572],[-80.3973928,25.5258922],[-80.3960453,25.5268846],[-80.3948781,25.5275429],[-80.3935563,25.5280928],[-80.3922001,25.5284878],[-80.3739003,25.5317927],[-80.3723401,25.5321965],[-80.3704283,25.533011],[-80.3687669,25.5340783],[-80.3668129,25.5358354],[-80.3654976,25.5374757],[-80.3645761,25.5388841],[-80.363524,25.541139],[-80.3630004,25.5428918],[-80.3626642,25.5450155],[-80.3626084,25.5461955],[-80.3628391,25.5703592],[-80.363054,25.5718393],[-80.3640646,25.5751366],[-80.3647702,25.5784456],[-80.3651563,25.579865],[-80.3669099,25.5844742],[-80.3694304,25.5920979],[-80.3699003,25.5931024],[-80.3705475,25.5940189]],[[-80.3707384,25.5937862],[-80.3702112,25.5930389],[-80.3697262,25.5920195],[-80.3672305,25.5842962],[-80.3654621,25.5798622],[-80.3643762,25.5750984],[-80.3633729,25.571731],[-80.3631905,25.5704142],[-80.3629615,25.5512534],[-80.3629283,25.5456709],[-80.362991,25.5448101],[-80.3633353,25.5427302],[-80.3638417,25.5411272],[-80.3647114,25.5392704],[-80.3658631,25.5374781],[-80.3666541,25.5365185],[-80.3682019,25.5349471],[-80.3692935,25.5340683],[-80.3711232,25.5329999],[-80.3723439,25.5325003],[-80.3738997,25.532084],[-80.3922431,25.5287976],[-80.3935188,25.5284401],[-80.394552,25.5280497],[-80.3958757,25.5273667],[-80.3972148,25.5264471],[-80.3982826,25.5254827],[-80.4091002,25.513717],[-80.4104048,25.5124699],[-80.4141846,25.5094665],[-80.415103,25.5085601],[-80.4159527,25.5074524],[-80.4166737,25.5060967],[-80.4172115,25.5042397],[-80.417841,25.4966301],[-80.4180985,25.4953828],[-80.4184648,25.4943742],[-80.4190512,25.4932523],[-80.419864,25.492139],[-80.4206391,25.4913386],[-80.4277802,25.4852335],[-80.429823,25.4837304],[-80.4464626,25.4734704],[-80.4491571,25.4716872],[-80.4724429,25.4555908]],[[-80.385784,25.7699533],[-80.3842182,25.7297721],[-80.3841462,25.7230775],[-80.3837752,25.7174858],[-80.3835464,25.7116747],[-80.3834913,25.7080524],[-80.3836262,25.7016945],[-80.3838521,25.7000383],[-80.3844652,25.6983414],[-80.3850306,25.6973487],[-80.3883224,25.6926098],[-80.3888365,25.6915956],[-80.3891715,25.6905148],[-80.3893097,25.6889504],[-80.3890836,25.683591],[-80.3889452,25.6773029]],[[-80.2365991,25.9728043],[-80.3010407,25.9708087],[-80.318673,25.9708439],[-80.3214282,25.9704967],[-80.3238572,25.9698948],[-80.3251876,25.9693932],[-80.3262605,25.9688839],[-80.3273162,25.9683206],[-80.3288268,25.9673329],[-80.3493636,25.9504821],[-80.3539582,25.9468373],[-80.3729102,25.9310981],[-80.3743652,25.9295229],[-80.3749992,25.928628],[-80.3756413,25.9274869],[-80.3761154,25.9264546],[-80.3812973,25.9121853],[-80.3821256,25.9103067],[-80.3836328,25.9062961],[-80.3847749,25.902991],[-80.387547,25.8955305],[-80.3885955,25.89229],[-80.3888256,25.8911727],[-80.3889723,25.8897688],[-80.3889843,25.88841],[-80.3880828,25.8690123],[-80.3876797,25.8548722],[-80.387585,25.8486756],[-80.3871244,25.8346553],[-80.3870105,25.8281657],[-80.3860969,25.7959102],[-80.3860225,25.7911655],[-80.3860721,25.7730573],[-80.3858199,25.7684698],[-80.3845054,25.734934],[-80.3842603,25.7280109],[-80.384249,25.723078],[-80.3838775,25.7174674],[-80.3836511,25.7116725],[-80.3835948,25.7080521],[-80.3837408,25.7014733],[-80.3838416,25.7005996],[-80.3840679,25.6996331],[-80.3844627,25.6985839],[-80.3849956,25.6975892],[-80.388528,25.6924548],[-80.3889919,25.6914731],[-80.389315,25.6903045],[-80.389411,25.6889463],[-80.3889452,25.6773029]],[[-80.3889452,25.6773029],[-80.3886751,25.671103],[-80.3889037,25.6661946],[-80.3887005,25.6629471],[-80.3882959,25.6597191],[-80.3874837,25.655171],[-80.3859611,25.645048],[-80.3856988,25.641213],[-80.3854455,25.6352639],[-80.3852767,25.6338815],[-80.3848597,25.632693],[-80.3840797,25.6314448],[-80.3832102,25.6305459],[-80.3808673,25.6286265],[-80.3803635,25.6281258],[-80.3796637,25.6270517],[-80.3793439,25.6261616],[-80.3791629,25.6247396],[-80.3781996,25.6041755],[-80.3780164,25.6028232],[-80.3775647,25.6013502],[-80.3766902,25.5995945],[-80.3755679,25.5981137],[-80.3747298,25.5972766],[-80.3716609,25.594687],[-80.3707384,25.5937862]],[[-80.388582,25.6777978],[-80.3890428,25.6889203],[-80.3889632,25.6902028],[-80.3886932,25.691247],[-80.3882425,25.6922362],[-80.3847431,25.6973308],[-80.3841969,25.698315],[-80.3837849,25.699345],[-80.3834944,25.7004877],[-80.3833518,25.7017926],[-80.383189,25.7076272],[-80.3835178,25.7174469],[-80.3838808,25.7228256],[-80.3839169,25.7285375],[-80.3854639,25.7684821],[-80.3854265,25.7732054],[-80.3855744,25.777848],[-80.3854993,25.7816966],[-80.3855741,25.7907853],[-80.3865146,25.8230353],[-80.3867642,25.8341926],[-80.3872655,25.848781],[-80.3876913,25.8672653],[-80.387906,25.8704567],[-80.3879725,25.8750883],[-80.3886398,25.888292],[-80.3886309,25.8897538],[-80.3884619,25.8912857],[-80.387879,25.8934707],[-80.3865706,25.8968297],[-80.3826558,25.9076169],[-80.3815915,25.9108222],[-80.3759182,25.926291],[-80.3749165,25.9282529],[-80.3735618,25.9301024],[-80.3721044,25.9315362],[-80.3554599,25.9451015],[-80.3518997,25.9481566],[-80.3290095,25.9668832],[-80.3268785,25.968282],[-80.3248185,25.9692697],[-80.3235311,25.9697327],[-80.321102,25.9703192],[-80.320115,25.9704735],[-80.3183211,25.9706047],[-80.30119,25.9706411],[-80.2961041,25.9707492],[-80.2316303,25.9727459],[-80.2304672,25.973012],[-80.2299061,25.9732604],[-80.2297363,25.9733579],[-80.2295373,25.9734822],[-80.228787,25.9741214],[-80.2284289,25.9747927],[-80.2283518,25.9753648],[-80.2284331,25.9759262],[-80.2294924,25.9778876],[-80.2298416,25.9792662]],[[-80.388582,25.6777978],[-80.3888051,25.680295],[-80.3891385,25.6886988],[-80.3891477,25.6894588],[-80.3890467,25.6903213],[-80.3887552,25.6913775],[-80.3882802,25.6923752],[-80.3848354,25.6973749],[-80.38439,25.6981511],[-80.3839566,25.6991591],[-80.3836541,25.7002193],[-80.3835017,25.7011765],[-80.3833084,25.7063067],[-80.3833331,25.710059],[-80.3836046,25.7170936],[-80.3839846,25.7228274],[-80.3840243,25.7286526],[-80.3855474,25.7679061],[-80.3855492,25.7732217],[-80.385793,25.7775094],[-80.385615,25.7806434],[-80.3856089,25.7849609]],[[-80.3705475,25.5940189],[-80.3711709,25.5946908],[-80.3742723,25.5973069],[-80.3753061,25.5983115],[-80.3763761,25.5997346],[-80.3771546,25.6012464],[-80.3776536,25.6028504],[-80.3778485,25.6041515],[-80.3786317,25.6213599],[-80.3788419,25.6254004],[-80.3789772,25.626257],[-80.3793623,25.6272919],[-80.3800392,25.6283077],[-80.3806958,25.6289546],[-80.382911,25.6307243],[-80.3839019,25.6317946],[-80.3845731,25.632941],[-80.3849629,25.6341509],[-80.3850834,25.6351889],[-80.3854423,25.6432771],[-80.3853957,25.6491418],[-80.3859969,25.6531676],[-80.3859509,25.6542492],[-80.3855124,25.6578291],[-80.3855483,25.6604689],[-80.3857537,25.662114],[-80.3862319,25.664175],[-80.3866859,25.6655723],[-80.3878303,25.6684887],[-80.3882438,25.6700089],[-80.3883916,25.6713231],[-80.388582,25.6777978]],[[-80.3856965,25.6449746],[-80.3853206,25.6351432],[-80.3852098,25.634115],[-80.3849936,25.6333187],[-80.384461,25.6321884],[-80.3837217,25.6311996],[-80.3829072,25.6304309],[-80.3808022,25.628715],[-80.3801069,25.6279893],[-80.3795397,25.6270535],[-80.3791788,25.6259456],[-80.3790482,25.6247453],[-80.3780852,25.6041848],[-80.3779847,25.6032874],[-80.3777189,25.6021193],[-80.3774274,25.6012578],[-80.3769135,25.6001639],[-80.3762718,25.5991313],[-80.3757002,25.5983998],[-80.3746289,25.5973013],[-80.3712398,25.5944294],[-80.3707384,25.5937862]],[[-80.3705475,25.5940189],[-80.3744272,25.5973253],[-80.3756895,25.5986221],[-80.3763276,25.5994844],[-80.3768707,25.6004006],[-80.3772986,25.6013275],[-80.3776287,25.6022915],[-80.3778509,25.603268],[-80.3779714,25.6042542],[-80.3789428,25.6251847],[-80.3790437,25.6260294],[-80.3793785,25.6270601],[-80.3800009,25.6280847],[-80.3805981,25.6287277],[-80.3827635,25.6304555],[-80.3835399,25.6311826],[-80.3843828,25.6323139],[-80.3848415,25.6333025],[-80.3851174,25.6343485],[-80.3852008,25.635191],[-80.3855561,25.6456255]],[[-80.2300133,25.9778578],[-80.2301516,25.975788],[-80.2303471,25.9750414],[-80.2309014,25.9741703],[-80.2315192,25.973626],[-80.2324949,25.973162],[-80.2335532,25.9729422],[-80.2365991,25.9728043]],[[-80.2341359,25.9730982],[-80.2365991,25.9728043]],[[-80.2301321,25.9819642],[-80.2300133,25.9778578]],[[-80.2300133,25.9778578],[-80.2299754,25.9771501],[-80.2296224,25.9684964],[-80.2295769,25.9675081],[-80.2295428,25.9664945],[-80.2295154,25.9628885],[-80.2291391,25.9545779],[-80.2289566,25.9530271],[-80.2286757,25.9516055],[-80.2282123,25.9499836],[-80.2278127,25.9489115],[-80.2271169,25.947477],[-80.2260102,25.9456212],[-80.2250312,25.9442096],[-80.2237337,25.942648],[-80.2158597,25.9348011],[-80.2139549,25.9331962],[-80.2125686,25.9314515],[-80.2100406,25.9290562],[-80.2094008,25.9283263]],[[-80.2298416,25.9792662],[-80.2299514,25.9806265]],[[-80.2108461,25.9302923],[-80.2113523,25.9307541],[-80.2121556,25.9317278],[-80.2127587,25.9327694],[-80.2129993,25.933039],[-80.2150706,25.9346302],[-80.2175133,25.9367835],[-80.2207884,25.9399232],[-80.2237879,25.9429603],[-80.2248911,25.9443061],[-80.2257724,25.9455698],[-80.2265814,25.9469502],[-80.227704,25.949292],[-80.2281668,25.9506077],[-80.2285375,25.9520408],[-80.228926,25.954762],[-80.2292094,25.9613612],[-80.2292537,25.9642829],[-80.2294955,25.969785],[-80.2296057,25.9723814],[-80.2296349,25.9730843],[-80.2296764,25.9740705],[-80.2297576,25.9759984],[-80.22984,25.9779865],[-80.2298416,25.9792662]]]},"properties":{"label":"Florida's Turnpike","aliases":["821","florida's turnpike","floridas turnpike","heft","homestead extension","sr 821","turnpike"]}},{"type":"Feature","geometry":{"type":"MultiLineString","coordinates":[[[-80.2123191,25.7491648],[-80.211598,25.7494329],[-80.2093591,25.7499459],[-80.2086248,25.7503028],[-80.2069665,25.7515579],[-80.2007814,25.7558344],[-80.2000886,25.7567273],[-80.1997701,25.7577257],[-80.1996091,25.7625829],[-80.2001423,25.7663914],[-80.2002016,25.7675478],[-80.1999543,25.7687526],[-80.198702,25.7717766],[-80.198596,25.7723074],[-80.1986052,25.7729575],[-80.1987555,25.7736891],[-80.1993947,25.7751817],[-80.1995502,25.7757342],[-80.1996639,25.7766671],[-80.1998305,25.7804042],[-80.2001537,25.7817857],[-80.2008705,25.783399],[-80.2046035,25.7906552],[-80.2051336,25.7922393],[-80.2052773,25.7932324],[-80.2056582,25.8056826]],[[-80.2058812,25.8039209],[-80.2056456,25.7986838],[-80.2055108,25.7928554],[-80.2053519,25.7917836],[-80.2050769,25.7906625],[-80.2044547,25.7892142],[-80.2019241,25.7844042],[-80.2005722,25.7821878],[-80.2003495,25.7816275],[-80.2001001,25.7806638],[-80.2000202,25.7800036],[-80.1998586,25.7755827],[-80.1990109,25.7727558],[-80.199072,25.7716281],[-80.1999366,25.7694951],[-80.2002828,25.7682336],[-80.2004368,25.7672157],[-80.2003833,25.7656377],[-80.1999469,25.7636395],[-80.1998018,25.7625419],[-80.1999244,25.7579011],[-80.2000571,25.7572351],[-80.2002926,25.7567028],[-80.200658,25.7561875],[-80.2010727,25.755797],[-80.2083841,25.7507594],[-80.210081,25.7499527]],[[-80.1656739,25.9845911],[-80.1656914,25.9821427],[-80.1660736,25.9790106],[-80.1661688,25.9769683],[-80.1661205,25.9757096],[-80.165458,25.9685528],[-80.1654553,25.9667563],[-80.1656431,25.9648042],[-80.1658724,25.9637227],[-80.1664209,25.9624048],[-80.1668984,25.9616452],[-80.1677124,25.9606781],[-80.1685587,25.9599486],[-80.1752561,25.9556174],[-80.1772799,25.9542053],[-80.1844548,25.9482459],[-80.1850489,25.9476719],[-80.1858924,25.9465769],[-80.1872389,25.9439998],[-80.1878746,25.9431532],[-80.1883958,25.9426001],[-80.1915209,25.9399399],[-80.1924317,25.9392986],[-80.1932165,25.9388693],[-80.1966146,25.9375953],[-80.1983145,25.9366317],[-80.199091,25.9360249],[-80.2020582,25.9335334],[-80.2042067,25.9317482],[-80.2044308,25.931558],[-80.2058394,25.9303915],[-80.2084081,25.9282358],[-80.2093576,25.9273819],[-80.2101701,25.9263682],[-80.2107097,25.9253453],[-80.2110737,25.9242],[-80.2112376,25.9231268],[-80.2112269,25.9221945],[-80.2112028,25.9219688],[-80.2111831,25.9218037],[-80.2111355,25.9215071],[-80.2105392,25.918197],[-80.2102419,25.9140355],[-80.2101023,25.9078858],[-80.2101573,25.9028813],[-80.2098088,25.898585],[-80.2090995,25.8840985],[-80.2091624,25.8800867],[-80.208881,25.8734878],[-80.2085867,25.8702993],[-80.2080977,25.8541227],[-80.207833,25.8486652],[-80.2077152,25.8468779],[-80.2075864,25.8460487],[-80.2073544,25.8453149],[-80.2064036,25.8431061],[-80.2062359,25.8423035],[-80.2061622,25.8413451],[-80.2061501,25.8370071],[-80.2059355,25.8311069],[-80.2060723,25.8299046],[-80.2065631,25.8277849],[-80.2066919,25.826684],[-80.2065001,25.8204259],[-80.2060861,25.812239],[-80.2058078,25.8041606],[-80.2058812,25.8039209]],[[-80.1657723,25.9829658],[-80.1658782,25.9814657],[-80.1662033,25.9789519],[-80.1662628,25.9767512],[-80.1656012,25.9690764],[-80.1655619,25.9665454],[-80.1657605,25.9645969],[-80.1660115,25.9635875],[-80.1663419,25.9627432],[-80.1671141,25.9614702],[-80.1676173,25.9608789],[-80.1687116,25.9599255],[-80.1750151,25.9559005],[-80.1774803,25.9541688],[-80.1844959,25.9483301],[-80.1851281,25.9477071],[-80.1859242,25.9466867],[-80.1873082,25.944052],[-80.1879041,25.9432485],[-80.1890325,25.9421843],[-80.191677,25.9399481],[-80.1926219,25.9393018],[-80.19368,25.9387468],[-80.1966534,25.9376573],[-80.1979845,25.9369641],[-80.1991981,25.9360929],[-80.2033935,25.9325859],[-80.2042851,25.9316852],[-80.2044212,25.9315177],[-80.2045794,25.931296],[-80.2047826,25.9309842],[-80.2059548,25.9285977],[-80.2064491,25.9278555],[-80.2071663,25.9271118],[-80.208929,25.9256994],[-80.2099494,25.9245985],[-80.2107199,25.9233561],[-80.2109906,25.9227482],[-80.2110876,25.9224751],[-80.2111417,25.922296],[-80.211175,25.9221658],[-80.2112466,25.9218242],[-80.2112832,25.9216404],[-80.21132,25.9213834],[-80.2113151,25.9209217],[-80.2111337,25.9193445],[-80.2105452,25.916128],[-80.2103341,25.913605],[-80.210249,25.9026967],[-80.2099131,25.8985803],[-80.209205,25.8840936],[-80.2092427,25.8797782],[-80.2089529,25.8732094],[-80.2086834,25.8704688],[-80.2081034,25.851675],[-80.2078345,25.8473389],[-80.2077004,25.8462068],[-80.2075274,25.8455454],[-80.2065417,25.8432715],[-80.2063566,25.8425847],[-80.206252,25.8416251],[-80.2062319,25.8370155],[-80.2060396,25.8308755],[-80.2061388,25.8300909],[-80.2067196,25.8276259],[-80.206826,25.8264683],[-80.2065645,25.8195036],[-80.206229,25.8138616],[-80.2058812,25.8039209]],[[-80.2056582,25.8056826],[-80.2060648,25.8198439],[-80.2064351,25.826656],[-80.2062818,25.8280507],[-80.2057899,25.8300586],[-80.2056746,25.8314209],[-80.2059023,25.8368274],[-80.205909,25.8411944],[-80.2059988,25.8423845],[-80.2061933,25.8432511],[-80.2071723,25.8454973],[-80.2073828,25.8462529],[-80.2077503,25.8511832],[-80.2083766,25.8705161],[-80.2086287,25.8730477],[-80.2089077,25.8792378],[-80.2089492,25.8809488],[-80.2088721,25.8841065],[-80.2095827,25.898593],[-80.2098974,25.902306],[-80.209935,25.9048901],[-80.2098272,25.9087993],[-80.2098395,25.9129332],[-80.2101089,25.91872],[-80.2104242,25.9226394],[-80.2103653,25.9231127],[-80.2100669,25.9239593],[-80.2095254,25.9247708],[-80.20868,25.9256358],[-80.2068666,25.9270937],[-80.2062306,25.927786],[-80.2057614,25.9285108],[-80.2046646,25.9307387],[-80.2043838,25.9311437],[-80.2036368,25.9318972],[-80.1978127,25.9367272],[-80.196367,25.9375045],[-80.1938956,25.9383759],[-80.1929858,25.9387833],[-80.1921248,25.9392997],[-80.1905094,25.9405567],[-80.1883606,25.9423794],[-80.187633,25.9431244],[-80.1870531,25.9439184],[-80.1856875,25.9464517],[-80.185112,25.9472297],[-80.184246,25.9480977],[-80.1781906,25.9531884],[-80.1762133,25.9547164],[-80.1684856,25.9597379],[-80.167329,25.9607549],[-80.1668387,25.9613508],[-80.1661177,25.9625161],[-80.1656971,25.9634961],[-80.165375,25.9651285],[-80.1652205,25.9671039],[-80.1652619,25.9692784],[-80.16585,25.9756553],[-80.1659243,25.9777755],[-80.1657612,25.9799436],[-80.1654694,25.9822197],[-80.1654652,25.9846037]],[[-80.2056582,25.8056826],[-80.2057664,25.8061305],[-80.2060385,25.8161881],[-80.206554,25.8263775],[-80.2064534,25.827653],[-80.2058905,25.8301304],[-80.2057861,25.8313446],[-80.2060217,25.8372576],[-80.2060394,25.84172],[-80.2061423,25.8426455],[-80.2064313,25.8436387],[-80.2073727,25.8457672],[-80.2076295,25.8473578],[-80.2079768,25.8541079],[-80.2085041,25.8711041],[-80.2087529,25.8732539],[-80.2090404,25.8800402],[-80.2089779,25.8841024],[-80.2096871,25.8985884],[-80.2100001,25.9020469],[-80.2100577,25.9037237],[-80.2100232,25.9077299],[-80.2103355,25.9177477],[-80.2105105,25.9192977],[-80.2111054,25.9222881],[-80.2111114,25.9223757],[-80.2111237,25.9226186],[-80.2111146,25.9232044],[-80.2109614,25.9242838],[-80.2106841,25.9251889],[-80.2101747,25.9262111],[-80.20956,25.9270434],[-80.208649,25.9279289],[-80.2056782,25.9304195],[-80.2052673,25.9307529],[-80.204982,25.9309992],[-80.2046339,25.9312851],[-80.2044363,25.931452],[-80.2041756,25.9316706],[-80.2029871,25.9326598],[-80.2021877,25.9333183],[-80.1988009,25.9361509],[-80.1981243,25.9366602],[-80.1964414,25.9375839],[-80.1933984,25.9386942],[-80.1917423,25.939674],[-80.1887369,25.942153],[-80.1879631,25.9428819],[-80.1870431,25.9440939],[-80.1857087,25.946601],[-80.1851857,25.947292],[-80.1844668,25.9480433],[-80.1774247,25.9539256],[-80.1758288,25.9550892],[-80.1687303,25.9596592],[-80.1677567,25.9604454],[-80.1667716,25.961571],[-80.1663136,25.9622975],[-80.165734,25.9637341],[-80.1655781,25.9643943],[-80.165332,25.9664356],[-80.1653266,25.9687927],[-80.1660374,25.9768345],[-80.1659864,25.9789382],[-80.1655734,25.9825923],[-80.1656015,25.9845996]]]},"properties":{"label":"I-95","aliases":["95","i 95","i-95","i95","interstate 95"]}},{"type":"Feature","geometry":{"type":"MultiLineString","coordinates":[[[-80.1363028,25.8128283],[-80.1408421,25.8110202],[-80.1426057,25.8106281],[-80.1444123,25.8104913],[-80.1817624,25.8108476],[-80.1826052,25.8109348],[-80.1849961,25.8114945],[-80.1858656,25.8116144],[-80.1918604,25.8114868],[-80.2005205,25.8117022]],[[-80.1977366,25.8114871],[-80.1916393,25.8113691],[-80.1860672,25.811486],[-80.1852466,25.8113881],[-80.1826175,25.8107732],[-80.181782,25.8106873],[-80.1442805,25.8103322],[-80.1423391,25.8105279],[-80.1406724,25.8109218],[-80.1385183,25.8117453],[-80.1359266,25.8128615],[-80.1358059,25.8129759]]]},"properties":{"label":"I-195","aliases":["195","i 195","i-195","i195","julia tuttle","julia tuttle causeway"]}},{"type":"Feature","geometry":{"type":"MultiLineString","coordinates":[[[-80.1860503,25.7871187],[-80.1868204,25.7869365],[-80.1878844,25.7862979],[-80.1884023,25.7861076],[-80.1902518,25.785839],[-80.1913811,25.7858724],[-80.1931282,25.7861439],[-80.1940824,25.7866179],[-80.1953148,25.7869888],[-80.1967801,25.7875648],[-80.1996718,25.7888361],[-80.2009295,25.7891756],[-80.2016723,25.7892569]],[[-80.2016389,25.7884906],[-80.2006931,25.7883993],[-80.199914,25.7881891],[-80.194772,25.785796],[-80.1933675,25.7855119],[-80.1902404,25.7856498],[-80.1881075,25.7861101],[-80.1867617,25.7868668],[-80.1853167,25.7870264]]]},"properties":{"label":"I-395","aliases":["395","i 395","i-395","i395","macarthur causeway"]}},{"type":"Feature","geometry":{"type":"MultiLineString","coordinates":[[[-80.3462143,25.9864589],[-80.3501938,25.9819086],[-80.35141,25.9800709],[-80.3517705,25.9793456],[-80.3523971,25.9776327],[-80.352646,25.9765062],[-80.3528262,25.9748781],[-80.3520196,25.9558714],[-80.3519869,25.9530284],[-80.3516838,25.9488778],[-80.3495447,25.9024825],[-80.349308,25.9016488],[-80.3490227,25.9010264],[-80.3485179,25.9002764],[-80.3478576,25.8995817],[-80.3472186,25.8990901],[-80.3465192,25.898698],[-80.3455704,25.8983318],[-80.3447308,25.8981268],[-80.3434348,25.8979976],[-80.332162,25.8980526],[-80.3306606,25.8982625],[-80.3293144,25.8987237]],[[-80.3307426,25.8990018],[-80.3325026,25.8985936],[-80.3348358,25.8984289],[-80.3434443,25.8984276],[-80.3446792,25.8985798],[-80.3455693,25.8988529],[-80.3463469,25.89923],[-80.3470283,25.8996923],[-80.347608,25.900225],[-80.3481157,25.9008484],[-80.3485359,25.9015809],[-80.3488051,25.9022894],[-80.348948,25.9029674],[-80.3510883,25.94984],[-80.3511688,25.9538592],[-80.351382,25.956289],[-80.3521739,25.9748396],[-80.3520022,25.9764368],[-80.3517877,25.9772624],[-80.3514443,25.9783503],[-80.3505689,25.9802252],[-80.3495818,25.9816449],[-80.3440153,25.9879596]]]},"properties":{"label":"I-75","aliases":["75","i 75","i-75","i75"]}},{"type":"Feature","geometry":{"type":"MultiLineString","coordinates":[[[-80.3185009,25.7278733],[-80.3184232,25.72524],[-80.3185107,25.7242186],[-80.318906,25.7230158],[-80.3196364,25.721895],[-80.3250747,25.7164011],[-80.3322845,25.7098743],[-80.3329368,25.7092015],[-80.3337694,25.7080879],[-80.3355804,25.7050718],[-80.3360181,25.7045073],[-80.3413107,25.698875],[-80.3423181,25.6969512],[-80.3429297,25.6960787],[-80.3436058,25.6954545],[-80.3452792,25.6942519],[-80.3460346,25.6935171],[-80.3485744,25.6906709],[-80.3514624,25.687168],[-80.3551242,25.6833885],[-80.3654977,25.6716874],[-80.3697275,25.6670665],[-80.3855082,25.6494098],[-80.3859374,25.6486566],[-80.3861309,25.6477012],[-80.385803,25.6449759],[-80.3856297,25.6413807],[-80.3856988,25.641213]],[[-80.3854026,25.6424402],[-80.3853102,25.6426262],[-80.3852978,25.6446343],[-80.3851037,25.6485125],[-80.3848733,25.6493796],[-80.3844059,25.6501622],[-80.3770457,25.6584608],[-80.3511931,25.6871786],[-80.3484199,25.6905781],[-80.3462014,25.6931191],[-80.3453721,25.6939479],[-80.343391,25.6954739],[-80.3426957,25.6961545],[-80.3412795,25.6984593],[-80.3408332,25.6990626],[-80.335795,25.7043758],[-80.3348766,25.7056673],[-80.3335119,25.7079874],[-80.3327222,25.7090469],[-80.3285508,25.7130759],[-80.3249803,25.7163083],[-80.3193213,25.7219617],[-80.3186467,25.7230805],[-80.3182813,25.7243437],[-80.3182229,25.7292637]]]},"properties":{"label":"SR 874","aliases":["874","don shula","don shula expressway","sr 874"]}},{"type":"Feature","geometry":{"type":"MultiLineString","coordinates":[[[-80.3018856,25.6942914],[-80.3029677,25.6938546],[-80.3035416,25.6937942],[-80.3041234,25.6938521],[-80.3049328,25.6941666],[-80.3070266,25.6954903],[-80.3077472,25.6957467],[-80.3085591,25.6958582],[-80.3129809,25.6956998],[-80.3172039,25.6953411],[-80.3215646,25.6954267],[-80.3262799,25.6952942],[-80.3278497,25.6953542],[-80.330731,25.6956587],[-80.3326132,25.6957605],[-80.3385509,25.6954912],[-80.3395228,25.6955779],[-80.3416484,25.6960058],[-80.3426508,25.6960273],[-80.343231,25.6959207],[-80.3439476,25.6956406],[-80.344417,25.6953548],[-80.3449736,25.6948769],[-80.3486804,25.6907884],[-80.3497271,25.6894428],[-80.3502159,25.688649]],[[-80.3453721,25.6939479],[-80.3439956,25.6947404],[-80.342632,25.6951167],[-80.3341092,25.6956117],[-80.3317885,25.6956044],[-80.3267225,25.6951687],[-80.3215659,25.6952974],[-80.3180234,25.6951953],[-80.3162062,25.6952654],[-80.3129971,25.6955691],[-80.3088935,25.6957359],[-80.3079148,25.6956485],[-80.3071363,25.6953959],[-80.3048664,25.6939764],[-80.3035353,25.693408],[-80.303041,25.693349],[-80.3025886,25.6934913]]]},"properties":{"label":"SR 878","aliases":["878","snapper creek","snapper creek expressway","sr 878"]}},{"type":"Feature","geometry":{"type":"MultiLineString","coordinates":[[[-80.2005205,25.8117022],[-80.202368,25.8118827],[-80.2065379,25.8125909],[-80.2086775,25.8127352],[-80.2337683,25.8121564],[-80.2363604,25.812195],[-80.2415274,25.8124655],[-80.2444542,25.81245],[-80.2471493,25.8123805],[-80.2487286,25.8122337],[-80.2551573,25.8109433],[-80.2568224,25.8104411],[-80.2578896,25.8099514],[-80.258892,25.8094224],[-80.2590925,25.8093091],[-80.2593133,25.8091809],[-80.2596113,25.8090073],[-80.2596372,25.8089925],[-80.2598423,25.8088631],[-80.260056,25.8087573],[-80.2632764,25.8075863],[-80.263947,25.807135],[-80.2645511,25.8064507],[-80.2649002,25.8057193],[-80.2650316,25.8048886],[-80.2649542,25.8026995],[-80.2647185,25.800446],[-80.2646085,25.7975646],[-80.2646061,25.797355],[-80.2645982,25.7966894]],[[-80.2640894,25.7963417],[-80.2645351,25.7967252],[-80.2645828,25.79679],[-80.2646157,25.7968424],[-80.2646977,25.7970008],[-80.2647716,25.7972525],[-80.2648693,25.8005283],[-80.2651075,25.802727],[-80.2651608,25.8052851],[-80.2650325,25.8058821],[-80.2646835,25.8066317],[-80.2639027,25.8075487],[-80.2623247,25.8085864],[-80.2616398,25.8087863],[-80.2603782,25.8089866],[-80.2596009,25.809071],[-80.2594754,25.809085],[-80.2591118,25.8091724],[-80.2563418,25.810472],[-80.2555264,25.8107038],[-80.2487114,25.8120791],[-80.2466258,25.8122491],[-80.2429264,25.8123187],[-80.2363947,25.8120405],[-80.2337941,25.8120096],[-80.2174347,25.8123419],[-80.2084912,25.8126355],[-80.2063111,25.8124578],[-80.2014955,25.8116643],[-80.1977366,25.8114871]],[[-80.1230053,25.813105],[-80.1252946,25.8135696],[-80.1276072,25.813811],[-80.1331685,25.8138716],[-80.133846,25.8137815],[-80.1358059,25.8129759]]]},"properties":{"label":"SR 112","aliases":["112","airport expressway","sr 112"]}},{"type":"Feature","geometry":{"type":"MultiLineString","coordinates":[[[-80.2085685,25.8838828],[-80.2348244,25.8828333],[-80.241756,25.8828149],[-80.2447177,25.8830019],[-80.2544746,25.882548],[-80.256586,25.8825866],[-80.2582072,25.8827437],[-80.2608518,25.8832739],[-80.2665338,25.8849419],[-80.2689837,25.8858251],[-80.2704359,25.8865007],[-80.2731646,25.8880645],[-80.2739736,25.8886538],[-80.2756877,25.8901091],[-80.2807474,25.8948564],[-80.2815628,25.8955282],[-80.2825155,25.896061],[-80.2840518,25.8965397],[-80.2851676,25.89664],[-80.2916522,25.896402],[-80.2946306,25.8964561],[-80.2972374,25.8967092],[-80.2999761,25.8971317],[-80.3076401,25.8987476],[-80.3089533,25.8989484],[-80.3099232,25.8990024],[-80.3129616,25.8988943],[-80.3176304,25.8988843],[-80.3191843,25.8991568],[-80.323085,25.9006537],[-80.3245852,25.9009051],[-80.325698,25.9008588],[-80.3269407,25.9005702],[-80.3307426,25.8990018]],[[-80.3293144,25.8987237],[-80.3284856,25.8991032],[-80.3260824,25.8999911],[-80.3253271,25.9001456],[-80.3242113,25.9002073],[-80.3227951,25.9000143],[-80.3188753,25.8988557],[-80.318326,25.8987708],[-80.3144379,25.8987167],[-80.3100777,25.8988403],[-80.3083868,25.8987167],[-80.2999738,25.8969938],[-80.2966406,25.8964535],[-80.2926135,25.8962322],[-80.2851762,25.8964779],[-80.2839103,25.896348],[-80.2827945,25.8960082],[-80.2813911,25.8952039],[-80.2743006,25.8886443],[-80.2721595,25.887165],[-80.2710858,25.8865532],[-80.268465,25.8853953],[-80.2670745,25.8849341],[-80.2608432,25.8831118],[-80.2583026,25.8825712],[-80.2567319,25.8824399],[-80.2534189,25.8823936],[-80.2449026,25.8828244],[-80.2419,25.8826728],[-80.2348213,25.8826879],[-80.2094481,25.8837315]]]},"properties":{"label":"SR 924","aliases":["924","gratigny","gratigny parkway","sr 924"]}},{"type":"Feature","geometry":{"type":"MultiLineString","coordinates":[[[-80.4093397,25.129212],[-80.3749945,25.1700521],[-80.374439,25.1709176],[-80.3741191,25.1717587],[-80.3739876,25.1726918],[-80.3740856,25.1735666],[-80.3743272,25.1742726],[-80.3746927,25.1749509],[-80.3751365,25.1755051],[-80.3756695,25.175975],[-80.3899853,25.1860186],[-80.3929047,25.1879752],[-80.3945193,25.1887331],[-80.4007395,25.1909424],[-80.4146031,25.1962819],[-80.4154754,25.1967169],[-80.4163078,25.1973126],[-80.4170983,25.1981272],[-80.4176991,25.1990469],[-80.4302962,25.2232741],[-80.4308205,25.2244898],[-80.4605679,25.3623587],[-80.4622941,25.3707186],[-80.4658912,25.3869388],[-80.4740362,25.4245199],[-80.4742319,25.4258038],[-80.474307,25.4272251],[-80.4740877,25.4333189],[-80.4748468,25.4373623],[-80.4749366,25.4385716],[-80.4751518,25.4620851],[-80.4750411,25.4634326],[-80.4746884,25.4649379],[-80.4739011,25.4667422],[-80.472765,25.4683729],[-80.466702,25.4746116],[-80.4658461,25.4756488],[-80.4651934,25.4767833],[-80.4628701,25.4820666],[-80.4623024,25.48302],[-80.4617389,25.4837411],[-80.4520405,25.4936897],[-80.4460061,25.4994905],[-80.4257357,25.5202576],[-80.4244929,25.5216403],[-80.4231964,25.5236998],[-80.4224689,25.5246172],[-80.3988838,25.5487706],[-80.3939878,25.5535516],[-80.3686536,25.5794182],[-80.3639739,25.5844069],[-80.3596238,25.5888702],[-80.3582144,25.5906225],[-80.3575837,25.5915362],[-80.3564754,25.5934786],[-80.3532007,25.6004243],[-80.3523047,25.6016392],[-80.3499188,25.6041252],[-80.3490227,25.6053907],[-80.3485855,25.6062184],[-80.3473445,25.6090465],[-80.3468806,25.6106485],[-80.3466583,25.6120945],[-80.3465469,25.6143461],[-80.3464175,25.6154505],[-80.3459957,25.6177932],[-80.3455122,25.6191373],[-80.3198253,25.6744767],[-80.3186823,25.6767266],[-80.3174984,25.6786912],[-80.315001,25.6821983],[-80.3138222,25.6836688],[-80.3119679,25.6856415],[-80.3098691,25.6875642],[-80.3002547,25.6953881],[-80.2981346,25.6973017],[-80.2896242,25.7042403],[-80.2838191,25.7087987],[-80.2662209,25.7231011],[-80.2646865,25.7239791],[-80.2613558,25.7267109],[-80.2598173,25.7276882],[-80.2575689,25.7295226],[-80.2561765,25.7309121],[-80.2545051,25.7320671],[-80.2521454,25.7341411],[-80.2506234,25.7351762],[-80.2121378,25.7492611],[-80.2090855,25.7500449],[-80.2084774,25.750404],[-80.2066623,25.7517723],[-80.2009031,25.7557325],[-80.2003864,25.7562621],[-80.2000886,25.7567273],[-80.1998458,25.7573491],[-80.199744,25.7580629],[-80.1996091,25.7625829],[-80.2001926,25.7668244],[-80.2001579,25.7678694],[-80.1999543,25.7687526],[-80.1996712,25.7695046],[-80.1989703,25.7710666],[-80.198805,25.7712367],[-80.1982588,25.7722223],[-80.1978391,25.7725195],[-80.197425,25.7726],[-80.1953717,25.7719244],[-80.1935665,25.7716352],[-80.1925262,25.7715375],[-80.1901558,25.7716762],[-80.190134,25.7711184],[-80.1898425,25.7708977],[-80.1874175,25.7709642],[-80.1872378,25.7710996],[-80.1872316,25.7721822],[-80.1870336,25.7731663],[-80.187327,25.7747328],[-80.187486,25.776192],[-80.1878602,25.7773186],[-80.1880885,25.7783304],[-80.1890858,25.7805316],[-80.1892545,25.7813118],[-80.1892816,25.7841077],[-80.1890133,25.7859883],[-80.1890646,25.7861963]],[[-80.1904599,25.7718896],[-80.1916342,25.7716796],[-80.1926985,25.7717066],[-80.1939285,25.771962],[-80.1954411,25.772159],[-80.1968298,25.7727549],[-80.1973259,25.7728649],[-80.1980359,25.7727591],[-80.198415,25.7725188],[-80.1986632,25.7722325],[-80.1990853,25.7713138],[-80.1992467,25.7711425],[-80.1999366,25.7694951],[-80.2002828,25.7682336],[-80.2004221,25.7673874],[-80.2004515,25.7664168],[-80.2003833,25.7656377],[-80.1999469,25.7636395],[-80.1998018,25.7625419],[-80.1999164,25.7580599],[-80.1999968,25.7574415],[-80.2002926,25.7567028],[-80.200658,25.7561875],[-80.2010727,25.755797],[-80.2025554,25.7547287],[-80.2083841,25.7507594],[-80.2093843,25.7502347],[-80.210081,25.7499527],[-80.2122412,25.7493513],[-80.2503385,25.7354508],[-80.2509359,25.7351282],[-80.2523434,25.7341478],[-80.2547258,25.7320694],[-80.2561331,25.7311271],[-80.2578023,25.7295023],[-80.2599487,25.7277492],[-80.2615295,25.7267368],[-80.2647306,25.7241182],[-80.2662901,25.7232176],[-80.2841135,25.7087437],[-80.2899597,25.7041332],[-80.2982381,25.6973929],[-80.2998585,25.6959406],[-80.3091195,25.6883758],[-80.3111067,25.6866938],[-80.312859,25.6849784],[-80.3145123,25.6830787],[-80.3165693,25.6803337],[-80.3190034,25.6765204],[-80.3198104,25.6749653],[-80.3457094,25.6191379],[-80.3460756,25.618226],[-80.3467433,25.6150743],[-80.3472218,25.6137904],[-80.3564429,25.5939653],[-80.3573109,25.5923294],[-80.358368,25.5907165],[-80.3597163,25.589032],[-80.3725066,25.5757092],[-80.3940919,25.5536402],[-80.3989896,25.5488599],[-80.4224536,25.5248414],[-80.4231393,25.5240298],[-80.4246522,25.5216699],[-80.4254461,25.5207628],[-80.446357,25.4993409],[-80.4515063,25.4944387],[-80.4617611,25.4839217],[-80.4623472,25.4832053],[-80.4630094,25.4821131],[-80.465246,25.4770757],[-80.4658816,25.4759011],[-80.4668343,25.4747125],[-80.4729546,25.4683908],[-80.4739275,25.4670214],[-80.4747434,25.4652845],[-80.4751529,25.4637668],[-80.4753097,25.4621843],[-80.4750987,25.4385844],[-80.4750054,25.4373292],[-80.4743918,25.4344095],[-80.4742447,25.4333782],[-80.4744057,25.42715],[-80.4743259,25.4257571],[-80.4741602,25.4246396],[-80.4617062,25.3674181],[-80.4451524,25.2904167],[-80.4435227,25.2830983],[-80.4406079,25.2690889],[-80.4380983,25.2577595],[-80.4333251,25.2353352],[-80.4308478,25.2243135],[-80.4304737,25.223455],[-80.4178028,25.199082],[-80.4171746,25.1980862],[-80.4164902,25.1973645],[-80.4156928,25.1967572],[-80.4147197,25.1962497],[-80.4007805,25.1908808],[-80.3945509,25.1886748],[-80.3929109,25.1878983],[-80.3910387,25.1866747],[-80.3757211,25.1759158],[-80.375278,25.1755282],[-80.3748227,25.1749637],[-80.3744377,25.1742493],[-80.3741996,25.1734847],[-80.3741291,25.1726102],[-80.3742396,25.1718732],[-80.3744672,25.1711531],[-80.374838,25.1705717],[-80.4089692,25.1299346]],[[-80.1901598,25.7721826],[-80.190241,25.7719626],[-80.1904599,25.7718896]],[[-80.1901598,25.7721826],[-80.1904599,25.7718896]],[[-80.1890646,25.7861963],[-80.1895444,25.7843036],[-80.189493,25.7812229],[-80.1879564,25.7761824],[-80.1877628,25.7746135],[-80.1875222,25.7735254],[-80.1874858,25.7728095],[-80.1876278,25.7726553],[-80.190178,25.7726201],[-80.1901598,25.7721826]],[[-80.1894754,25.8077812],[-80.1894144,25.807872],[-80.1894373,25.8107548]],[[-80.1894373,25.8107548],[-80.1895617,25.8099921],[-80.1894754,25.8077812]],[[-80.1894509,25.8071104],[-80.1894754,25.8077812]],[[-80.1894509,25.8071104],[-80.1895012,25.8070318],[-80.1894391,25.8067449]],[[-80.1894391,25.8067449],[-80.1893948,25.8070329],[-80.1894509,25.8071104]],[[-80.1890456,25.7904805],[-80.1889797,25.7923323],[-80.1890616,25.7982531],[-80.1894391,25.8067449]],[[-80.1892748,25.8124465],[-80.1894373,25.8107548]],[[-80.1892748,25.8124465],[-80.1891923,25.8125651],[-80.1890009,25.8142044],[-80.1883179,25.816376],[-80.1877898,25.818643],[-80.1871774,25.8221868],[-80.1868795,25.8234853],[-80.1868236,25.8240611],[-80.1868823,25.8268386],[-80.1867002,25.8273681],[-80.1860885,25.828452]],[[-80.1860885,25.828452],[-80.1867819,25.8274136],[-80.1869753,25.8268642],[-80.1869955,25.8236452],[-80.1878473,25.8193824],[-80.1884918,25.8168462],[-80.188693,25.815754],[-80.1891439,25.8141971],[-80.1893294,25.8125793],[-80.1892748,25.8124465]],[[-80.1890651,25.7900793],[-80.1890456,25.7904805]],[[-80.1890456,25.7904805],[-80.189107,25.7902419],[-80.1890651,25.7900793]],[[-80.1890646,25.7861963],[-80.1891547,25.7882597],[-80.1890651,25.7900793]],[[-80.1860885,25.828452],[-80.1846174,25.8308119]],[[-80.18493,25.8562515],[-80.184568,25.8572215],[-80.1838655,25.8582404]],[[-80.1838655,25.8582404],[-80.1843095,25.8577756],[-80.1846358,25.8572887],[-80.1848673,25.8567412],[-80.18493,25.8562515]],[[-80.18493,25.8562515],[-80.184855,25.8536152]],[[-80.184855,25.8536152],[-80.184902,25.8534877],[-80.184844,25.8533232]],[[-80.184844,25.8533232],[-80.184855,25.8536152]],[[-80.184844,25.8533232],[-80.1847997,25.852155]],[[-80.1847997,25.852155],[-80.1847898,25.8518698]],[[-80.1847898,25.8518698],[-80.1847564,25.8519954],[-80.1847997,25.852155]],[[-80.1840431,25.8326581],[-80.1847898,25.8518698]],[[-80.1846174,25.8308119],[-80.1840294,25.8317705],[-80.1839541,25.8322411],[-80.1840431,25.8326581]],[[-80.1840431,25.8326581],[-80.1841095,25.8318435],[-80.1846174,25.8308119]],[[-80.1838655,25.8582404],[-80.18267,25.8596913]],[[-80.18267,25.8596913],[-80.1790511,25.8639709],[-80.168611,25.8768589],[-80.1681848,25.8775939],[-80.1650622,25.8848497],[-80.1586315,25.9058139],[-80.1573782,25.9101268],[-80.1558509,25.9187159],[-80.1543099,25.9241908],[-80.1525579,25.9297537],[-80.1518552,25.931387],[-80.1468561,25.9475106],[-80.1466486,25.9487336],[-80.1465633,25.9502618],[-80.1468849,25.9598947],[-80.1469116,25.9623819],[-80.1468237,25.9634304],[-80.1465376,25.9646199],[-80.1462752,25.9653495],[-80.1449247,25.9679817],[-80.1428775,25.9724104],[-80.1422728,25.9740774],[-80.1420502,25.9751756],[-80.1419629,25.9761682],[-80.1420758,25.980728]],[[-80.1422464,25.9803485],[-80.1421465,25.9761843],[-80.1422648,25.9749462],[-80.1424968,25.9739316],[-80.1429191,25.9727459],[-80.1449773,25.9683005],[-80.1464901,25.9653727],[-80.1467966,25.9645263],[-80.1470661,25.9633575],[-80.1471387,25.9624155],[-80.1471256,25.960049],[-80.1467866,25.9499434],[-80.1468569,25.9488181],[-80.1471669,25.947201],[-80.1520298,25.9314271],[-80.1529009,25.9294496],[-80.1545446,25.9241891],[-80.1560597,25.9187204],[-80.1575988,25.9099507],[-80.1652013,25.8848481],[-80.1679486,25.8784454],[-80.1686567,25.8770159],[-80.18267,25.8596913]]]},"properties":{"label":"US 1","aliases":["dixie highway","south dixie highway","us 1","us-1","us1"]}},{"type":"Feature","geometry":{"type":"MultiLineString","coordinates":[[[-80.4875555,25.761011],[-80.5119384,25.7610153],[-80.5174229,25.7608789],[-80.5344527,25.7608679],[-80.5402599,25.7609865],[-80.581398,25.7609845],[-80.6053441,25.7609415],[-80.6077879,25.7608427],[-80.6131599,25.7608322],[-80.6216058,25.7608543],[-80.6261647,25.7609773],[-80.6316022,25.7608235],[-80.6515699,25.7608198],[-80.6560481,25.7609477],[-80.6720671,25.7609709],[-80.6733297,25.7611939],[-80.6752443,25.7618217],[-80.6765876,25.7619937],[-80.8220395,25.7617796],[-80.826349,25.7618567],[-80.8273258,25.7620306],[-80.8282392,25.7623476],[-80.8290964,25.7627763],[-80.8297856,25.763275],[-80.8713759,25.8037412]],[[-80.4344668,25.7610553],[-80.4833703,25.7610679],[-80.4875555,25.761011]],[[-80.4875555,25.761011],[-80.4859679,25.7609158],[-80.4783568,25.7608888],[-80.4489114,25.7609137],[-80.4389793,25.7608453],[-80.3822779,25.7609367],[-80.3362126,25.761856],[-80.3230021,25.7621918],[-80.3147562,25.7627299]],[[-80.4308728,25.761055],[-80.4309462,25.7610729],[-80.4344668,25.7610553]],[[-80.4308728,25.761055],[-80.4344668,25.7610553]],[[-80.4261074,25.7610589],[-80.4308728,25.761055]],[[-80.4237494,25.7610589],[-80.42409,25.7610783],[-80.4261074,25.7610589]],[[-80.4237494,25.7610589],[-80.4249356,25.7610055],[-80.4261074,25.7610589]],[[-80.4069927,25.7610531],[-80.4174247,25.7610706],[-80.4237494,25.7610589]],[[-80.4038833,25.7610494],[-80.4066589,25.7609988],[-80.4069927,25.7610531]],[[-80.4038833,25.7610494],[-80.4069927,25.7610531]],[[-80.3147562,25.7627299],[-80.3156236,25.7627597],[-80.3233933,25.7623394],[-80.3804103,25.76113],[-80.4038833,25.7610494]],[[-80.2393195,25.7651592],[-80.2680253,25.7642928],[-80.2881346,25.7635559],[-80.3147562,25.7627299]],[[-80.2389129,25.7651684],[-80.2393195,25.7651592]],[[-80.2393195,25.7651592],[-80.2392019,25.7651266],[-80.2389129,25.7651684]],[[-80.2389129,25.7651684],[-80.2386943,25.7651684],[-80.2382408,25.7651822]],[[-80.2382408,25.7651822],[-80.1921151,25.766457],[-80.1906119,25.7661512]],[[-80.1903806,25.767047],[-80.1920934,25.7674117],[-80.22116,25.7665328],[-80.2368362,25.7661476],[-80.2372182,25.7661281],[-80.2378161,25.7654885],[-80.2382408,25.7651822]]]},"properties":{"label":"US 41","aliases":["calle ocho","sw 8th st","sw 8th street","tamiami trail","us 41","us-41"]}},{"type":"Feature","geometry":{"type":"MultiLineString","coordinates":[[[-80.4324075,25.9921362],[-80.4313567,25.956988],[-80.4303934,25.9362881],[-80.4302856,25.9354217],[-80.4300537,25.9346647],[-80.4296124,25.9338078],[-80.4290023,25.9330202],[-80.4282036,25.9323185],[-80.3908426,25.9046945],[-80.3739595,25.8920988],[-80.3614861,25.8829383],[-80.3579224,25.8804045],[-80.3490199,25.873682],[-80.3291548,25.8589758],[-80.3211008,25.8529467],[-80.3170908,25.8498481],[-80.3051906,25.8410249],[-80.3038582,25.8401962],[-80.3018421,25.8385263],[-80.293987,25.8328268],[-80.2899592,25.8296829],[-80.2817224,25.8235649],[-80.280574,25.8228435],[-80.2794524,25.8220129],[-80.2785127,25.8211825],[-80.2652078,25.8112218],[-80.2636158,25.8101149],[-80.2626427,25.8096513],[-80.2617709,25.8093675],[-80.260458,25.809113],[-80.2602,25.8088805],[-80.2600518,25.8084484],[-80.2599638,25.8085128]],[[-80.2599638,25.8085128],[-80.2600719,25.8088729],[-80.2603194,25.809133],[-80.2623745,25.8096612],[-80.2638055,25.8103979],[-80.2785106,25.821345],[-80.2801306,25.822682],[-80.281606,25.8236482],[-80.2896934,25.8296535],[-80.2937918,25.8328445],[-80.3022447,25.8389842],[-80.30376,25.8402662],[-80.3049977,25.8410452],[-80.3182299,25.8508604],[-80.3203813,25.8526249],[-80.3250362,25.8560334],[-80.3274552,25.8579798],[-80.3519824,25.8761519],[-80.3560801,25.8792681],[-80.368757,25.8885695],[-80.3839403,25.8999692],[-80.394087,25.9073701],[-80.4276227,25.9322078],[-80.4285961,25.9330568],[-80.4291528,25.9337917],[-80.4295188,25.9344974],[-80.4297603,25.9352464],[-80.4298747,25.9360172],[-80.4308726,25.9569787],[-80.4319669,25.9941402]],[[-80.2067114,25.8096904],[-80.2075373,25.8100657],[-80.2599638,25.8085128]],[[-80.2067114,25.8096904],[-80.2063867,25.809521],[-80.2058435,25.8095105],[-80.204782,25.809997],[-80.2040473,25.8101856]],[[-80.2040473,25.8101856],[-80.2042649,25.8102102],[-80.2048361,25.8100726],[-80.2057064,25.8096348],[-80.2062526,25.809587],[-80.2067114,25.8096904]],[[-80.1896118,25.8106316],[-80.2040473,25.8101856]]]},"properties":{"label":"US 27","aliases":["okeechobee road","us 27","us-27"]}},{"type":"Feature","geometry":{"type":"MultiLineString","coordinates":[[[-80.1894754,25.8077812],[-80.1894144,25.807872],[-80.1894373,25.8107548]],[[-80.1894373,25.8107548],[-80.1895617,25.8099921],[-80.1894754,25.8077812]],[[-80.1894509,25.8071104],[-80.1894754,25.8077812]],[[-80.1894509,25.8071104],[-80.1895012,25.8070318],[-80.1894391,25.8067449]],[[-80.1894391,25.8067449],[-80.1893948,25.8070329],[-80.1894509,25.8071104]],[[-80.1890456,25.7904805],[-80.1889797,25.7923323],[-80.1890616,25.7982531],[-80.1894391,25.8067449]],[[-80.1892748,25.8124465],[-80.1894373,25.8107548]],[[-80.1892748,25.8124465],[-80.1891923,25.8125651],[-80.1890009,25.8142044],[-80.1883179,25.816376],[-80.1877898,25.818643],[-80.1871774,25.8221868],[-80.1868795,25.8234853],[-80.1868236,25.8240611],[-80.1868823,25.8268386],[-80.1867002,25.8273681],[-80.1860885,25.828452]],[[-80.1860885,25.828452],[-80.1867819,25.8274136],[-80.1869753,25.8268642],[-80.1869955,25.8236452],[-80.1878473,25.8193824],[-80.1884918,25.8168462],[-80.188693,25.815754],[-80.1891439,25.8141971],[-80.1893294,25.8125793],[-80.1892748,25.8124465]],[[-80.1890651,25.7900793],[-80.1890456,25.7904805]],[[-80.1890456,25.7904805],[-80.189107,25.7902419],[-80.1890651,25.7900793]],[[-80.1890646,25.7861963],[-80.1891547,25.7882597],[-80.1890651,25.7900793]],[[-80.1890646,25.7861963],[-80.1895327,25.7844359],[-80.1895095,25.7813642],[-80.1893277,25.7805597],[-80.1885564,25.7782683],[-80.1883075,25.7771981],[-80.1879564,25.7761824],[-80.1877628,25.7746135],[-80.1875092,25.7734042],[-80.1874858,25.7728095],[-80.1875918,25.7726631]],[[-80.1872927,25.7710155],[-80.1872194,25.771211],[-80.1872161,25.7723235],[-80.1870336,25.7731663],[-80.187327,25.7747328],[-80.187486,25.776192],[-80.1878602,25.7773186],[-80.1880885,25.7783304],[-80.1890858,25.7805316],[-80.1892545,25.7813118],[-80.1892816,25.7841077],[-80.1890133,25.7859883],[-80.1890646,25.7861963]],[[-80.1860885,25.828452],[-80.1846174,25.8308119]],[[-80.18493,25.8562515],[-80.184568,25.8572215],[-80.1838655,25.8582404]],[[-80.1838655,25.8582404],[-80.1843095,25.8577756],[-80.1846358,25.8572887],[-80.1848673,25.8567412],[-80.18493,25.8562515]],[[-80.18493,25.8562515],[-80.184855,25.8536152]],[[-80.184855,25.8536152],[-80.184902,25.8534877],[-80.184844,25.8533232]],[[-80.184844,25.8533232],[-80.184855,25.8536152]],[[-80.184844,25.8533232],[-80.1847997,25.852155]],[[-80.1847997,25.852155],[-80.1847898,25.8518698]],[[-80.1847898,25.8518698],[-80.1847564,25.8519954],[-80.1847997,25.852155]],[[-80.1840431,25.8326581],[-80.1847898,25.8518698]],[[-80.1846174,25.8308119],[-80.1840294,25.8317705],[-80.1839541,25.8322411],[-80.1840431,25.8326581]],[[-80.1840431,25.8326581],[-80.1841095,25.8318435],[-80.1846174,25.8308119]],[[-80.1838655,25.8582404],[-80.18267,25.8596913]],[[-80.18267,25.8596913],[-80.1790511,25.8639709],[-80.168611,25.8768589],[-80.1681848,25.8775939],[-80.1650622,25.8848497],[-80.1586315,25.9058139],[-80.1573782,25.9101268],[-80.1558509,25.9187159],[-80.1543099,25.9241908],[-80.1525579,25.9297537],[-80.1518552,25.931387],[-80.1469737,25.9470353],[-80.1466883,25.9484246],[-80.1465662,25.9499377],[-80.1468849,25.9598947],[-80.1469116,25.9623819],[-80.1468237,25.9634304],[-80.1463203,25.9652436],[-80.1449247,25.9679817],[-80.1427592,25.972674],[-80.142427,25.9735571],[-80.1421564,25.9745831]],[[-80.1423301,25.9746077],[-80.142606,25.9735759],[-80.1430375,25.9724806],[-80.1450883,25.9680651],[-80.1464901,25.9653727],[-80.1467966,25.9645263],[-80.1470661,25.9633575],[-80.1471387,25.9624155],[-80.1471256,25.960049],[-80.1467866,25.9499434],[-80.1468569,25.9488181],[-80.1471669,25.947201],[-80.1520298,25.9314271],[-80.1529009,25.9294496],[-80.1545446,25.9241891],[-80.1560597,25.9187204],[-80.1575988,25.9099507],[-80.1652013,25.8848481],[-80.1679486,25.8784454],[-80.1686567,25.8770159],[-80.18267,25.8596913]]]},"properties":{"label":"Biscayne Boulevard","aliases":["biscayne","biscayne blvd","biscayne boulevard"]}}]}
